{"type":"FeatureCollection","features":[{"type":"Feature","properties":{"GROUP.ID":"G10891937","LOCALITY":"PMC_Team23Grid7","LATITUDE":23.718111,"LONGITUDE":69.784117,"OBSERVATION.DATE":"2023-09-23","OBSERVER.ID":"obsr1391386","DURATION.MINUTES":26.0,"SAMPLING.EVENT.IDENTIFIER":"S150527475","species_list":"Ashy-crowned Sparrow-Lark; Asian Green Bee-eater; Bay-backed Shrike; Black Drongo; Blue-cheeked Bee-eater; Common Babbler; Common Hoopoe; Eurasian Collared-Dove; Eurasian Curlew; Great Egret; Greater Short-toed Lark; Gull-billed Tern; Isabelline Shrike; Isabelline Wheatear; Long-billed Pipit; Paddyfield Pipit; Pallid Harrier; Purple Sunbird; Red-backed Shrike; Red-wattled Lapwing; Sand Lark; Spotted Flycatcher; Variable Wheatear; White-eared Bulbul; White-throated Kingfisher","n_species":25,"focal_species_seen":"Blue-cheeked Bee-eater; Red-backed Shrike; Spotted Flycatcher","focal_species_slugs":"blue-cheeked-bee-eater;red-backed-shrike;spotted-flycatcher","has_focal":true,"GRID_CODE":"GJ-KU-BHU-036","DISTRICT":"Kachchh","BLOCK":"Bhuj"},"geometry":{"type":"Point","coordinates":[69.784117,23.718111]}},{"type":"Feature","properties":{"GROUP.ID":"G10878018","LOCALITY":"T19-G1","LATITUDE":22.9532105,"LONGITUDE":69.6734557,"OBSERVATION.DATE":"2023-09-23","OBSERVER.ID":"obsr612947","DURATION.MINUTES":95.0,"SAMPLING.EVENT.IDENTIFIER":"S150527912","species_list":"Asian Green Bee-eater; Asian Koel; Barn Swallow; Barred Buttonquail; Bay-backed Shrike; Baya Weaver; Black-winged Stilt; Black Drongo; Brahminy Starling; Common Babbler; Common Hoopoe; Common Kingfisher; Common Myna; Common Sandpiper; Common Tailorbird; Eastern Cattle-Egret; Eastern Red-rumped Swallow; Eurasian Collared-Dove; European Roller; Gray Francolin; Great Egret; Greater Coucal; Green Sandpiper; House Sparrow; Indian Bushlark; Indian Robin; Indian Silverbill; Jungle Prinia; Laughing Dove; Little Cormorant; Plain Prinia; Purple Sunbird; Red-vented Bulbul; Red-wattled Lapwing; Red Collared-Dove; River Tern; Rosy Starling; Rufous-fronted Prinia; Spotted Flycatcher; Temminck's Stint; Western Yellow Wagtail; White-browed Wagtail; White-eared Bulbul; White-throated Kingfisher; Wire-tailed Swallow; Wood Sandpiper; Yellow-crowned Woodpecker","n_species":47,"focal_species_seen":"European Roller; Spotted Flycatcher","focal_species_slugs":"european-roller;spotted-flycatcher","has_focal":true,"GRID_CODE":"GJ-KU-MUN-011","DISTRICT":"Kachchh","BLOCK":"Mundra"},"geometry":{"type":"Point","coordinates":[69.6734557,22.9532105]}},{"type":"Feature","properties":{"GROUP.ID":"G10879679","LOCALITY":"T32G6","LATITUDE":23.5363621,"LONGITUDE":70.4683156,"OBSERVATION.DATE":"2023-09-23","OBSERVER.ID":"obsr413366","DURATION.MINUTES":70.0,"SAMPLING.EVENT.IDENTIFIER":"S150527956","species_list":"Ashy-crowned Sparrow-Lark; Asian Green Bee-eater; Blue-cheeked Bee-eater; Chestnut-bellied Sandgrouse; Gray-necked Bunting; Greater Short-toed Lark; Purple Sunbird; Red-backed Shrike; Red-wattled Lapwing; River Tern; Spotted Flycatcher; Variable Wheatear; Yellow-wattled Lapwing","n_species":13,"focal_species_seen":"Blue-cheeked Bee-eater; Red-backed Shrike; Spotted Flycatcher","focal_species_slugs":"blue-cheeked-bee-eater;red-backed-shrike;spotted-flycatcher","has_focal":true,"GRID_CODE":"GJ-KU-RAP-060","DISTRICT":"Kachchh","BLOCK":"Rapar"},"geometry":{"type":"Point","coordinates":[70.4683156,23.5363621]}},{"type":"Feature","properties":{"GROUP.ID":"G10879669","LOCALITY":"PMC_23 T32G5","LATITUDE":23.5060171,"LONGITUDE":70.5055766,"OBSERVATION.DATE":"2023-09-23","OBSERVER.ID":"obsr413366","DURATION.MINUTES":26.0,"SAMPLING.EVENT.IDENTIFIER":"S150529158","species_list":"Ashy-crowned Sparrow-Lark; Asian Green Bee-eater; Bay-backed Shrike; Baya Weaver; Black-winged Kite; Blue Rock-Thrush; Chestnut-bellied Sandgrouse; Common Babbler; Common Cuckoo; Common Hoopoe; Common Myna; Common Tailorbird; Dusky Crag-Martin; Eastern Cattle-Egret; Eurasian Collared-Dove; Eurasian Wryneck; European Roller; Gray-breasted Prinia; Gray-necked Bunting; Gray Francolin; House Sparrow; Indian Peafowl; Indian Robin; Indian Silverbill; Laughing Dove; Little Cormorant; Little Grebe; Long-tailed Shrike; Paddyfield Pipit; Red-vented Bulbul; Red-wattled Lapwing; Red Collared-Dove; Rose-ringed Parakeet; Rosy Starling; Spotted Flycatcher; Variable Wheatear; White-eared Bulbul; Wire-tailed Swallow; Yellow-throated Sparrow","n_species":39,"focal_species_seen":"Common Cuckoo; European Roller; Spotted Flycatcher","focal_species_slugs":"common-cuckoo;european-roller;spotted-flycatcher","has_focal":true,"GRID_CODE":"GJ-KU-BHA-021","DISTRICT":"Kachchh","BLOCK":"Bhachau"},"geometry":{"type":"Point","coordinates":[70.5055766,23.5060171]}},{"type":"Feature","properties":{"GROUP.ID":"G10890982","LOCALITY":"PMC2023_T7G7","LATITUDE":23.7754975,"LONGITUDE":69.4480527,"OBSERVATION.DATE":"2023-09-23","OBSERVER.ID":"obsr696747","DURATION.MINUTES":21.0,"SAMPLING.EVENT.IDENTIFIER":"S150529286","species_list":"Blue-cheeked Bee-eater","n_species":1,"focal_species_seen":"Blue-cheeked Bee-eater","focal_species_slugs":"blue-cheeked-bee-eater","has_focal":true,"GRID_CODE":"GJ-KU-BHU-017","DISTRICT":"Kachchh","BLOCK":"Bhuj"},"geometry":{"type":"Point","coordinates":[69.4480527,23.7754975]}},{"type":"Feature","properties":{"GROUP.ID":"G11248118","LOCALITY":"Pmc2023_Team24_grid4","LATITUDE":23.4185248,"LONGITUDE":69.9050381,"OBSERVATION.DATE":"2023-09-23","OBSERVER.ID":"obsr1206687","DURATION.MINUTES":62.0,"SAMPLING.EVENT.IDENTIFIER":"S150530222","species_list":"Ashy-crowned Sparrow-Lark; Asian Green Bee-eater; Booted Eagle; Common Babbler; Common Hoopoe; Eurasian Collared-Dove; Gray Francolin; Indian Roller; Indian Silverbill; Jungle Prinia; Lesser Whitethroat; Montagu's Harrier; Red-vented Bulbul; White-eared Bulbul","n_species":14,"focal_species_seen":"","focal_species_slugs":"","has_focal":false,"GRID_CODE":"GJ-KU-BHU-089","DISTRICT":"Kachchh","BLOCK":"Bhuj"},"geometry":{"type":"Point","coordinates":[69.9050381,23.4185248]}},{"type":"Feature","properties":{"GROUP.ID":"G10891941","LOCALITY":"PMC_Team23Grid6","LATITUDE":23.651785,"LONGITUDE":69.771159,"OBSERVATION.DATE":"2023-09-23","OBSERVER.ID":"obsr1391386","DURATION.MINUTES":35.0,"SAMPLING.EVENT.IDENTIFIER":"S150530297","species_list":"Asian Green Bee-eater; Bay-backed Shrike; Black Drongo; Blue-cheeked Bee-eater; Brahminy Starling; Chestnut-bellied Sandgrouse; Common Babbler; Common Tailorbird; European Roller; Great Gray Shrike; Indian Thick-knee; Lesser Whitethroat; Long-billed Pipit; Pallid Harrier; Purple Sunbird; Rosy Starling; Rufous-tailed Lark; White-eared Bulbul; White-tailed Iora","n_species":19,"focal_species_seen":"Blue-cheeked Bee-eater; European Roller","focal_species_slugs":"blue-cheeked-bee-eater;european-roller","has_focal":true,"GRID_CODE":"GJ-KU-BHU-065","DISTRICT":"Kachchh","BLOCK":"Bhuj"},"geometry":{"type":"Point","coordinates":[69.771159,23.651785]}},{"type":"Feature","properties":{"GROUP.ID":"G10894987","LOCALITY":"PMC2023_T10G1","LATITUDE":23.2853383,"LONGITUDE":69.0810985,"OBSERVATION.DATE":"2023-09-23","OBSERVER.ID":"obsr870545","DURATION.MINUTES":67.0,"SAMPLING.EVENT.IDENTIFIER":"S150530464","species_list":"Asian Green Bee-eater; Baya Weaver; Chestnut-bellied Sandgrouse; Common Babbler; Common Kingfisher; Common Sandpiper; Common Tailorbird; Gray Francolin; Great Egret; House Sparrow; Indian Silverbill; Laughing Dove; Lesser Whistling-Duck; Little Grebe; Long-tailed Shrike; Plain Prinia; Red-vented Bulbul; Red Collared-Dove; Spotted Flycatcher; White-throated Kingfisher; Wire-tailed Swallow; Yellow-crowned Woodpecker","n_species":22,"focal_species_seen":"Spotted Flycatcher","focal_species_slugs":"spotted-flycatcher","has_focal":true,"GRID_CODE":"GJ-KU-ABD-041","DISTRICT":"Kachchh","BLOCK":"Abdasa"},"geometry":{"type":"Point","coordinates":[69.0810985,23.2853383]}},{"type":"Feature","properties":{"GROUP.ID":"G10879670","LOCALITY":"PMC_23 T32G3","LATITUDE":23.4259116,"LONGITUDE":70.4561331,"OBSERVATION.DATE":"2023-09-23","OBSERVER.ID":"obsr413366","DURATION.MINUTES":90.0,"SAMPLING.EVENT.IDENTIFIER":"S150530533","species_list":"Ashy-crowned Sparrow-Lark; Asian Green Bee-eater; Bay-backed Shrike; Baya Weaver; Black-winged Kite; Black Drongo; Common Cuckoo; Common Hoopoe; Eastern Red-rumped Swallow; European Roller; House Sparrow; Laughing Dove; Long-tailed Shrike; Pied Cuckoo; Purple Sunbird; Red-vented Bulbul; Red-wattled Lapwing; Red Collared-Dove; Spotted Flycatcher; White-throated Kingfisher; Wire-tailed Swallow","n_species":21,"focal_species_seen":"Common Cuckoo; European Roller; Spotted Flycatcher","focal_species_slugs":"common-cuckoo;european-roller;spotted-flycatcher","has_focal":true,"GRID_CODE":"GJ-KU-BHA-027","DISTRICT":"Kachchh","BLOCK":"Bhachau"},"geometry":{"type":"Point","coordinates":[70.4561331,23.4259116]}},{"type":"Feature","properties":{"GROUP.ID":"G10880672","LOCALITY":"PMC_23 T5G3","LATITUDE":23.484191,"LONGITUDE":68.86269,"OBSERVATION.DATE":"2023-09-23","OBSERVER.ID":"obsr1662974","DURATION.MINUTES":15.0,"SAMPLING.EVENT.IDENTIFIER":"S150531265","species_list":"Bay-backed Shrike; Baya Weaver; Black Francolin; Common Babbler; Eurasian Wryneck; Gray Francolin; House Sparrow; Indian Robin; Laughing Dove; Pied Cuckoo; Purple Sunbird; Red-vented Bulbul; Red-wattled Lapwing; Rufous-fronted Prinia; Rufous-tailed Lark; Spotted Flycatcher; White-eared Bulbul; White-tailed Iora","n_species":18,"focal_species_seen":"Spotted Flycatcher","focal_species_slugs":"spotted-flycatcher","has_focal":true,"GRID_CODE":"GJ-KU-LAK-070","DISTRICT":"Kachchh","BLOCK":"Lakhpat"},"geometry":{"type":"Point","coordinates":[68.86269,23.484191]}},{"type":"Feature","properties":{"GROUP.ID":"G10878281","LOCALITY":"PMC2023_T2G2","LATITUDE":23.6940181,"LONGITUDE":68.6675916,"OBSERVATION.DATE":"2023-09-23","OBSERVER.ID":"obsr1173605","DURATION.MINUTES":52.0,"SAMPLING.EVENT.IDENTIFIER":"S150531571","species_list":"Ashy-crowned Sparrow-Lark; Asian Green Bee-eater; Black Francolin; Blyth's Reed Warbler; Booted Eagle; Common Babbler; Common Hoopoe; Eastern Cattle-Egret; Eurasian Collared-Dove; European Roller; Glossy Ibis; Gray-breasted Prinia; Gray Francolin; Green Sandpiper; Indian Courser; Indian Robin; Indian Silverbill; Laughing Dove; Paddyfield Pipit; Painted Stork; Red-vented Bulbul; Red-wattled Lapwing; Rosy Starling; Rufous-fronted Prinia; Spotted Flycatcher; White-tailed Iora","n_species":26,"focal_species_seen":"European Roller; Spotted Flycatcher","focal_species_slugs":"european-roller;spotted-flycatcher","has_focal":true,"GRID_CODE":"GJ-KU-LAK-020","DISTRICT":"Kachchh","BLOCK":"Lakhpat"},"geometry":{"type":"Point","coordinates":[68.6675916,23.6940181]}},{"type":"Feature","properties":{"GROUP.ID":"G10878307","LOCALITY":"T29G6","LATITUDE":23.4164213,"LONGITUDE":70.8238162,"OBSERVATION.DATE":"2023-09-23","OBSERVER.ID":"obsr914590","DURATION.MINUTES":23.0,"SAMPLING.EVENT.IDENTIFIER":"S150532900","species_list":"Ashy-crowned Sparrow-Lark; Asian Green Bee-eater; Chestnut-bellied Sandgrouse; Common Babbler; Gray Francolin; House Sparrow; Indian Peafowl; Isabelline Wheatear; Laughing Dove; Red-wattled Lapwing; Rufous-tailed Lark; Shikra; Variable Wheatear; White-eared Bulbul; Yellow-wattled Lapwing","n_species":15,"focal_species_seen":"","focal_species_slugs":"","has_focal":false,"GRID_CODE":"GJ-KU-RAP-088","DISTRICT":"Kachchh","BLOCK":"Rapar"},"geometry":{"type":"Point","coordinates":[70.8238162,23.4164213]}},{"type":"Feature","properties":{"GROUP.ID":"G10879640","LOCALITY":"PMC_23 T32G2","LATITUDE":23.4259779,"LONGITUDE":70.3233412,"OBSERVATION.DATE":"2023-09-23","OBSERVER.ID":"obsr413366","DURATION.MINUTES":90.0,"SAMPLING.EVENT.IDENTIFIER":"S150535443","species_list":"Ashy-crowned Sparrow-Lark; Asian Green Bee-eater; Asian Koel; Barn Swallow; Bay-backed Shrike; Black-winged Kite; Black Drongo; Chestnut-bellied Sandgrouse; Common Hoopoe; Eastern Cattle-Egret; Eurasian Collared-Dove; Eurasian Wryneck; European Roller; Gray Francolin; Indian Bushlark; Indian Robin; Laughing Dove; Pied Cuckoo; Plain Prinia; Red-wattled Lapwing; Red Collared-Dove; Rufous-tailed Lark; Siberian Stonechat; White-throated Kingfisher","n_species":24,"focal_species_seen":"European Roller","focal_species_slugs":"european-roller","has_focal":true,"GRID_CODE":"GJ-KU-BHA-024","DISTRICT":"Kachchh","BLOCK":"Bhachau"},"geometry":{"type":"Point","coordinates":[70.3233412,23.4259779]}},{"type":"Feature","properties":{"GROUP.ID":"G10879337","LOCALITY":"PMC2023_T20G3","LATITUDE":22.988194,"LONGITUDE":69.9502183,"OBSERVATION.DATE":"2023-09-23","OBSERVER.ID":"obsr1326084","DURATION.MINUTES":25.0,"SAMPLING.EVENT.IDENTIFIER":"S150535649","species_list":"Ashy-crowned Sparrow-Lark; Asian Green Bee-eater; Common Myna; Eastern Cattle-Egret; Eastern Red-rumped Swallow; European Roller; House Sparrow; Indian Bushlark; Laughing Dove; Little Ringed Plover; Plain Prinia; Red-wattled Lapwing; Rosy Starling; Rufous-tailed Lark; Streaked Weaver; Yellow-throated Sparrow","n_species":16,"focal_species_seen":"European Roller","focal_species_slugs":"european-roller","has_focal":true,"GRID_CODE":"GJ-KU-ANJ-039","DISTRICT":"Kachchh","BLOCK":"Anjar"},"geometry":{"type":"Point","coordinates":[69.9502183,22.988194]}},{"type":"Feature","properties":{"GROUP.ID":"G10879336","LOCALITY":"PMC2023_T20G2","LATITUDE":22.9324066,"LONGITUDE":69.9892786,"OBSERVATION.DATE":"2023-09-23","OBSERVER.ID":"obsr1326084","DURATION.MINUTES":61.0,"SAMPLING.EVENT.IDENTIFIER":"S150535680","species_list":"Black Drongo; Blue-cheeked Bee-eater; Common Babbler; Common Myna; Common Sandpiper; Eurasian Moorhen; Glossy Ibis; Great Crested Grebe; Great Egret; House Crow; House Sparrow; Indian Pond-Heron; Indian Robin; Indian Spot-billed Duck; Little Cormorant; Little Grebe; Little Stint; Painted Stork; Red-naped Ibis; Red-wattled Lapwing; River Tern; Rosy Starling; Tibetan Sand-Plover; Whiskered Tern; White-throated Kingfisher; Wire-tailed Swallow; Wood Sandpiper","n_species":27,"focal_species_seen":"Blue-cheeked Bee-eater","focal_species_slugs":"blue-cheeked-bee-eater","has_focal":true,"GRID_CODE":"GJ-KU-ANJ-043","DISTRICT":"Kachchh","BLOCK":"Anjar"},"geometry":{"type":"Point","coordinates":[69.9892786,22.9324066]}},{"type":"Feature","properties":{"GROUP.ID":"G10880016","LOCALITY":"PMC2023_T10G3","LATITUDE":23.3273913,"LONGITUDE":68.9662127,"OBSERVATION.DATE":"2023-09-23","OBSERVER.ID":"obsr870545","DURATION.MINUTES":10.0,"SAMPLING.EVENT.IDENTIFIER":"S150536502","species_list":"Asian Green Bee-eater; Bay-backed Shrike; Baya Weaver; Black-winged Kite; Black Drongo; Brahminy Starling; Common Babbler; Common Hoopoe; Common Sandpiper; Common Tailorbird; Common Woodshrike; Eastern Red-rumped Swallow; Eurasian Coot; European Roller; Gray Heron; Great Crested Grebe; Great Egret; Green Sandpiper; House Sparrow; Indian Bushlark; Indian Pond-Heron; Indian Robin; Indian Roller; Indian Silverbill; Laughing Dove; Little Egret; Little Grebe; Long-tailed Shrike; Plain Prinia; Purple Sunbird; Red-vented Bulbul; Red-wattled Lapwing; Red Collared-Dove; Rosy Starling; Rufous-fronted Prinia; White-eared Bulbul; Wire-tailed Swallow","n_species":37,"focal_species_seen":"European Roller","focal_species_slugs":"european-roller","has_focal":true,"GRID_CODE":"GJ-KU-ABD-027","DISTRICT":"Kachchh","BLOCK":"Abdasa"},"geometry":{"type":"Point","coordinates":[68.9662127,23.3273913]}},{"type":"Feature","properties":{"GROUP.ID":"G10878604","LOCALITY":"PMC2023_T31_G6","LATITUDE":23.3294651,"LONGITUDE":70.1612214,"OBSERVATION.DATE":"2023-09-23","OBSERVER.ID":"obsr1155883","DURATION.MINUTES":23.0,"SAMPLING.EVENT.IDENTIFIER":"S150537876","species_list":"Asian Green Bee-eater; Asian Koel; Black-winged Stilt; Common Babbler; Common Sandpiper; Dusky Crag-Martin; Eastern Cattle-Egret; Eastern Red-rumped Swallow; Eurasian Collared-Dove; European Roller; Gray-breasted Prinia; Greater Coucal; Green Sandpiper; House Sparrow; Indian Robin; Indian Silverbill; Laughing Dove; Plain Prinia; Red-vented Bulbul; Red-wattled Lapwing; Rufous-fronted Prinia; Spotted Flycatcher; White-throated Kingfisher; Wire-tailed Swallow","n_species":24,"focal_species_seen":"European Roller; Spotted Flycatcher","focal_species_slugs":"european-roller;spotted-flycatcher","has_focal":true,"GRID_CODE":"GJ-KU-ANJ-005","DISTRICT":"Kachchh","BLOCK":"Anjar"},"geometry":{"type":"Point","coordinates":[70.1612214,23.3294651]}},{"type":"Feature","properties":{"GROUP.ID":"G10879627","LOCALITY":"PMC_23 T32G4","LATITUDE":23.4843413,"LONGITUDE":70.3558065,"OBSERVATION.DATE":"2023-09-23","OBSERVER.ID":"obsr413366","DURATION.MINUTES":120.0,"SAMPLING.EVENT.IDENTIFIER":"S150539099","species_list":"Ashy-crowned Sparrow-Lark; Asian Green Bee-eater; Asian Koel; Bay-backed Shrike; Baya Weaver; Black-tailed Godwit; Black-winged Kite; Black Drongo; Chestnut-bellied Sandgrouse; Common Babbler; Common Hoopoe; Eastern Red-rumped Swallow; Eurasian Collared-Dove; Eurasian Wryneck; European Roller; Gray-breasted Prinia; Gray Francolin; House Sparrow; Indian Pond-Heron; Indian Robin; Indian Silverbill; Isabelline Shrike; Laughing Dove; Long-tailed Shrike; Pied Cuckoo; Purple Sunbird; Red-vented Bulbul; Red-wattled Lapwing; Red Collared-Dove; Rosy Starling; Siberian Stonechat; Spotted Flycatcher; White-breasted Waterhen; White-eared Bulbul; White-throated Kingfisher; Wire-tailed Swallow; Yellow-wattled Lapwing","n_species":37,"focal_species_seen":"European Roller; Spotted Flycatcher","focal_species_slugs":"european-roller;spotted-flycatcher","has_focal":true,"GRID_CODE":"GJ-KU-BHA-018","DISTRICT":"Kachchh","BLOCK":"Bhachau"},"geometry":{"type":"Point","coordinates":[70.3558065,23.4843413]}},{"type":"Feature","properties":{"GROUP.ID":"G11248116","LOCALITY":"Pmc2023_Team24_Grid2","LATITUDE":23.3857365,"LONGITUDE":69.9014924,"OBSERVATION.DATE":"2023-09-23","OBSERVER.ID":"obsr1206687","DURATION.MINUTES":59.0,"SAMPLING.EVENT.IDENTIFIER":"S150539557","species_list":"Ashy-crowned Sparrow-Lark; Asian Green Bee-eater; Barn Swallow; Bay-backed Shrike; Blue-cheeked Bee-eater; Common Babbler; Eurasian Collared-Dove; Gray Francolin; Green Sandpiper; Indian Pond-Heron; Indian Robin; Indian Silverbill; Jungle Prinia; Laughing Dove; Purple Sunbird; Red-backed Shrike; Red-wattled Lapwing; River Tern; Rosy Starling; Spotted Flycatcher; Variable Wheatear; White-eared Bulbul; White-throated Kingfisher","n_species":23,"focal_species_seen":"Blue-cheeked Bee-eater; Red-backed Shrike; Spotted Flycatcher","focal_species_slugs":"blue-cheeked-bee-eater;red-backed-shrike;spotted-flycatcher","has_focal":true,"GRID_CODE":"GJ-KU-BHU-102","DISTRICT":"Kachchh","BLOCK":"Bhuj"},"geometry":{"type":"Point","coordinates":[69.9014924,23.3857365]}},{"type":"Feature","properties":{"GROUP.ID":"G10890981","LOCALITY":"PMC2023_T7G4","LATITUDE":23.7371835,"LONGITUDE":69.2839091,"OBSERVATION.DATE":"2023-09-23","OBSERVER.ID":"obsr696747","DURATION.MINUTES":23.0,"SAMPLING.EVENT.IDENTIFIER":"S150541164","species_list":"Blue-cheeked Bee-eater","n_species":1,"focal_species_seen":"Blue-cheeked Bee-eater","focal_species_slugs":"blue-cheeked-bee-eater","has_focal":true,"GRID_CODE":"GJ-KU-BHU-026","DISTRICT":"Kachchh","BLOCK":"Bhuj"},"geometry":{"type":"Point","coordinates":[69.2839091,23.7371835]}},{"type":"Feature","properties":{"GROUP.ID":"G10878797","LOCALITY":"PMC2023_T1_G7","LATITUDE":23.7669733,"LONGITUDE":68.8765579,"OBSERVATION.DATE":"2023-09-23","OBSERVER.ID":"obsr1241180","DURATION.MINUTES":48.0,"SAMPLING.EVENT.IDENTIFIER":"S150541253","species_list":"Asian Green Bee-eater; Asian Koel; Bay-backed Shrike; Black Drongo; Black Francolin; Chestnut-bellied Sandgrouse; Common Hoopoe; Common Kingfisher; Eastern Cattle-Egret; Eurasian Collared-Dove; Eurasian Curlew; European Roller; Gray-breasted Prinia; Gray-necked Bunting; Gray Francolin; Indian Peafowl; Indian Pond-Heron; Laughing Dove; Little Egret; Long-tailed Shrike; Medium Egret; Oriental Darter; Oriental Honey-buzzard; Painted Stork; Pied Cuckoo; Pied Kingfisher; Plain Prinia; Red-naped Ibis; Red-wattled Lapwing; Rufous-fronted Prinia; White-throated Kingfisher","n_species":31,"focal_species_seen":"European Roller","focal_species_slugs":"european-roller","has_focal":true,"GRID_CODE":"GJ-KU-LAK-007","DISTRICT":"Kachchh","BLOCK":"Lakhpat"},"geometry":{"type":"Point","coordinates":[68.8765579,23.7669733]}},{"type":"Feature","properties":{"GROUP.ID":"G10880017","LOCALITY":"PMC2023_T10G2","LATITUDE":23.2853383,"LONGITUDE":69.1810985,"OBSERVATION.DATE":"2023-09-23","OBSERVER.ID":"obsr870545","DURATION.MINUTES":7.0,"SAMPLING.EVENT.IDENTIFIER":"S150543375","species_list":"Ashy-crowned Sparrow-Lark; Asian Green Bee-eater; Asian Koel; Bay-backed Shrike; Black-winged Kite; Black-winged Stilt; Black Drongo; Brahminy Starling; Chestnut-bellied Sandgrouse; Common Hoopoe; Eastern Cattle-Egret; Eurasian Collared-Dove; Eurasian Spoonbill; European Roller; Gray-necked Bunting; Gray Francolin; Gray Heron; Great Egret; Green Sandpiper; Indian Peafowl; Indian Pond-Heron; Indian Roller; Laughing Dove; Little Egret; Little Grebe; Pied Kingfisher; Red-naped Ibis; Red-vented Bulbul; Red-wattled Lapwing; Red Collared-Dove; Siberian Stonechat; Western Reef-Heron; White-eared Bulbul; White-throated Kingfisher; Wire-tailed Swallow; Wood Sandpiper; Yellow-crowned Woodpecker","n_species":37,"focal_species_seen":"European Roller","focal_species_slugs":"european-roller","has_focal":true,"GRID_CODE":"GJ-KU-ABD-043","DISTRICT":"Kachchh","BLOCK":"Abdasa"},"geometry":{"type":"Point","coordinates":[69.1810985,23.2853383]}},{"type":"Feature","properties":{"GROUP.ID":"G10890983","LOCALITY":"PMC2023_T7G6","LATITUDE":23.7627537,"LONGITUDE":69.3256977,"OBSERVATION.DATE":"2023-09-23","OBSERVER.ID":"obsr696747","DURATION.MINUTES":24.0,"SAMPLING.EVENT.IDENTIFIER":"S150545583","species_list":"Rufous-tailed Scrub-Robin","n_species":1,"focal_species_seen":"Rufous-tailed Scrub-Robin","focal_species_slugs":"rufous-tailed-scrub-robin","has_focal":true,"GRID_CODE":"GJ-KU-RAN-501","DISTRICT":"Kachchh","BLOCK":"Rann of Kachchh"},"geometry":{"type":"Point","coordinates":[69.3256977,23.7627537]}},{"type":"Feature","properties":{"GROUP.ID":"G10886453","LOCALITY":"PMS2023-T3G3","LATITUDE":23.481628,"LONGITUDE":68.582832,"OBSERVATION.DATE":"2023-09-23","OBSERVER.ID":"obsr1777443","DURATION.MINUTES":24.0,"SAMPLING.EVENT.IDENTIFIER":"S150546640","species_list":"Ashy-crowned Sparrow-Lark; Asian Green Bee-eater; Black-winged Kite; Black Drongo; Black Francolin; Common Babbler; Common Cuckoo; Common Myna; Eastern Cattle-Egret; Eurasian Collared-Dove; European Roller; Gray Francolin; Greater Whitethroat; House Crow; Indian Bushlark; Indian Robin; Jungle Prinia; Laughing Dove; Lesser Whitethroat; Oriental Darter; Plain Prinia; Purple Sunbird; Red-vented Bulbul; Rosy Starling; Rufous-fronted Prinia","n_species":25,"focal_species_seen":"Common Cuckoo; European Roller; Greater Whitethroat","focal_species_slugs":"common-cuckoo;european-roller;greater-whitethroat","has_focal":true,"GRID_CODE":"GJ-KU-ABD-001","DISTRICT":"Kachchh","BLOCK":"Abdasa"},"geometry":{"type":"Point","coordinates":[68.582832,23.481628]}},{"type":"Feature","properties":{"GROUP.ID":"G10879087","LOCALITY":"PMC2023_T15G1","LATITUDE":22.9711178,"LONGITUDE":69.5342665,"OBSERVATION.DATE":"2023-09-23","OBSERVER.ID":"obsr1030717","DURATION.MINUTES":16.0,"SAMPLING.EVENT.IDENTIFIER":"S150549550","species_list":"Ashy-crowned Sparrow-Lark; Asian Green Bee-eater; Bay-backed Shrike; Baya Weaver; Black Drongo; Common Babbler; Common Hoopoe; Common Kingfisher; Common Woodshrike; Eastern Cattle-Egret; Eurasian Collared-Dove; Gray-breasted Prinia; Gray Francolin; Great Egret; House Sparrow; Indian Bushlark; Indian Robin; Indian Roller; Indian Thick-knee; Laughing Dove; Lesser Whistling-Duck; Little Cormorant; Pied Kingfisher; Purple Sunbird; Red-vented Bulbul; Red-wattled Lapwing; Red Collared-Dove; Rosy Starling; Spotted Flycatcher; White-eared Bulbul; White-throated Kingfisher","n_species":31,"focal_species_seen":"Spotted Flycatcher","focal_species_slugs":"spotted-flycatcher","has_focal":true,"GRID_CODE":"GJ-KU-MUN-003","DISTRICT":"Kachchh","BLOCK":"Mundra"},"geometry":{"type":"Point","coordinates":[69.5342665,22.9711178]}},{"type":"Feature","properties":{"GROUP.ID":"G10879454","LOCALITY":"PMC2023_T25G1","LATITUDE":23.8341756,"LONGITUDE":70.3733687,"OBSERVATION.DATE":"2023-09-23","OBSERVER.ID":"obsr604291","DURATION.MINUTES":70.0,"SAMPLING.EVENT.IDENTIFIER":"S150552505","species_list":"Ashy-crowned Sparrow-Lark; Asian Green Bee-eater; Barn Swallow; Baya Weaver; Black-headed Bunting; Black-winged Stilt; Chestnut-bellied Sandgrouse; Common Babbler; Common Hoopoe; Eastern Red-rumped Swallow; Eurasian Collared-Dove; European Roller; Greater Flamingo; Green-winged Teal; House Sparrow; Laughing Dove; Plain Prinia; Red Collared-Dove; Rosy Starling; Rufous-tailed Lark; Western Marsh Harrier; Whiskered Tern; Yellow-throated Sparrow; Zitting Cisticola","n_species":24,"focal_species_seen":"European Roller","focal_species_slugs":"european-roller","has_focal":true,"GRID_CODE":"GJ-KU-BHA-011","DISTRICT":"Kachchh","BLOCK":"Bhachau"},"geometry":{"type":"Point","coordinates":[70.3733687,23.8341756]}},{"type":"Feature","properties":{"GROUP.ID":"G10880676","LOCALITY":"PMC_23 T5G1","LATITUDE":23.432895,"LONGITUDE":68.854121,"OBSERVATION.DATE":"2023-09-23","OBSERVER.ID":"obsr1662974","DURATION.MINUTES":35.0,"SAMPLING.EVENT.IDENTIFIER":"S150554556","species_list":"Ashy-crowned Sparrow-Lark; Asian Green Bee-eater; Bay-backed Shrike; Black-headed Bunting; Black Drongo; Black Francolin; Common Babbler; Eastern Red-rumped Swallow; Eurasian Collared-Dove; European Roller; House Crow; Indian Bushlark; Indian Robin; Indian Silverbill; Laughing Dove; Long-tailed Shrike; Red-vented Bulbul; Red Collared-Dove; Spotted Flycatcher; White-eared Bulbul","n_species":20,"focal_species_seen":"European Roller; Spotted Flycatcher","focal_species_slugs":"european-roller;spotted-flycatcher","has_focal":true,"GRID_CODE":"GJ-KU-ABD-008","DISTRICT":"Kachchh","BLOCK":"Abdasa"},"geometry":{"type":"Point","coordinates":[68.854121,23.432895]}},{"type":"Feature","properties":{"GROUP.ID":"G10880675","LOCALITY":"PMC_23 T5G2","LATITUDE":23.423372,"LONGITUDE":68.929426,"OBSERVATION.DATE":"2023-09-23","OBSERVER.ID":"obsr1662974","DURATION.MINUTES":25.0,"SAMPLING.EVENT.IDENTIFIER":"S150556411","species_list":"Asian Green Bee-eater; Bay-backed Shrike; Baya Weaver; Black Francolin; Common Babbler; Gray Francolin; Laughing Dove; Purple Sunbird; Rosy Starling; Wire-tailed Swallow","n_species":10,"focal_species_seen":"","focal_species_slugs":"","has_focal":false,"GRID_CODE":"GJ-KU-LAK-075","DISTRICT":"Kachchh","BLOCK":"Lakhpat"},"geometry":{"type":"Point","coordinates":[68.929426,23.423372]}},{"type":"Feature","properties":{"GROUP.ID":"G10879637","LOCALITY":"PMC_23 T32G1","LATITUDE":23.3725445,"LONGITUDE":70.305144,"OBSERVATION.DATE":"2023-09-23","OBSERVER.ID":"obsr759009","DURATION.MINUTES":26.0,"SAMPLING.EVENT.IDENTIFIER":"S150562472","species_list":"Ashy-crowned Sparrow-Lark; Asian Green Bee-eater; Barn Swallow; Bay-backed Shrike; Baya Weaver; Black-tailed Godwit; Black-winged Kite; Black-winged Stilt; Black Drongo; Chestnut-bellied Sandgrouse; Common Babbler; Common Cuckoo; Common Greenshank; Crested Lark; Eurasian Collared-Dove; European Roller; Gray-breasted Prinia; Gray Francolin; Gray Heron; Indian Bushlark; Indian Pond-Heron; Indian Robin; Indian Silverbill; Jungle Prinia; Laughing Dove; Little Cormorant; Little Egret; Little Grebe; Montagu's Harrier; Paddyfield Pipit; Pied Cuckoo; Purple Sunbird; Red-vented Bulbul; Red-wattled Lapwing; Red Collared-Dove; Rosy Starling; Rufous-tailed Lark; Siberian Stonechat; White-eared Bulbul; White-throated Kingfisher; Wire-tailed Swallow; Yellow-wattled Lapwing","n_species":42,"focal_species_seen":"Common Cuckoo; European Roller","focal_species_slugs":"common-cuckoo;european-roller","has_focal":true,"GRID_CODE":"GJ-KU-BHA-032","DISTRICT":"Kachchh","BLOCK":"Bhachau"},"geometry":{"type":"Point","coordinates":[70.305144,23.3725445]}},{"type":"Feature","properties":{"GROUP.ID":"G10880188","LOCALITY":"Passage Migrant Count - 2023 T13G8","LATITUDE":22.9105224,"LONGITUDE":69.2020423,"OBSERVATION.DATE":"2023-09-23","OBSERVER.ID":"obsr2176608","DURATION.MINUTES":60.0,"SAMPLING.EVENT.IDENTIFIER":"S150571331","species_list":"Ashy-crowned Sparrow-Lark; Asian Green Bee-eater; Barred Buttonquail; Bay-backed Shrike; Baya Weaver; Black-winged Stilt; Black Drongo; Blyth's Reed Warbler; Chestnut-bellied Sandgrouse; Common Babbler; Common Hoopoe; Common Tailorbird; Delicate Prinia; Eastern Cattle-Egret; Eastern Red-rumped Swallow; Eurasian Collared-Dove; Eurasian Wryneck; European Roller; Gray-breasted Prinia; Gray-headed Swamphen; Gray Francolin; Indian Bushlark; Indian Pond-Heron; Indian Robin; Indian Silverbill; Laughing Dove; Lesser Whistling-Duck; Lesser Whitethroat; Little Cormorant; Little Egret; Long-tailed Shrike; Oriental Darter; Paddyfield Pipit; Pied Cuckoo; Plain Prinia; Purple Sunbird; Rain Quail; Red-naped Ibis; Red-vented Bulbul; Red-wattled Lapwing; Rosy Starling; Rufous-fronted Prinia; Siberian Stonechat; Streak-throated Swallow; Sykes's Warbler; Western Yellow Wagtail; White-tailed Iora; White-throated Kingfisher; Wood Sandpiper; Yellow-wattled Lapwing; Zitting Cisticola","n_species":51,"focal_species_seen":"European Roller","focal_species_slugs":"european-roller","has_focal":true,"GRID_CODE":"GJ-KU-MAN-029","DISTRICT":"Kachchh","BLOCK":"Mandvi"},"geometry":{"type":"Point","coordinates":[69.2020423,22.9105224]}},{"type":"Feature","properties":{"GROUP.ID":"G10880416","LOCALITY":"PMC2023_T14G2","LATITUDE":22.9700172,"LONGITUDE":69.4258366,"OBSERVATION.DATE":"2023-09-23","OBSERVER.ID":"obsr1173703","DURATION.MINUTES":29.0,"SAMPLING.EVENT.IDENTIFIER":"S150572873","species_list":"Asian Green Bee-eater; Baya Weaver; Black-winged Kite; Black Drongo; Common Babbler; Common Tailorbird; Eastern Red-rumped Swallow; Eurasian Collared-Dove; Gray-breasted Prinia; Gray Francolin; House Sparrow; Indian Pond-Heron; Indian Robin; Laughing Dove; Little Swift; Red-vented Bulbul; Red-wattled Lapwing; River Tern; White-eared Bulbul; Wire-tailed Swallow","n_species":20,"focal_species_seen":"","focal_species_slugs":"","has_focal":false,"GRID_CODE":"GJ-KU-MAN-024","DISTRICT":"Kachchh","BLOCK":"Mandvi"},"geometry":{"type":"Point","coordinates":[69.4258366,22.9700172]}},{"type":"Feature","properties":{"GROUP.ID":"G10880414","LOCALITY":"PMC2023_T14G5","LATITUDE":23.0976752,"LONGITUDE":69.4103987,"OBSERVATION.DATE":"2023-09-23","OBSERVER.ID":"obsr1173703","DURATION.MINUTES":47.0,"SAMPLING.EVENT.IDENTIFIER":"S150573340","species_list":"Asian Green Bee-eater; Barred Buttonquail; Baya Weaver; Common Tailorbird; Gray-breasted Prinia; Gray Francolin; Greater Coucal; Indian Golden Oriole; Indian Pond-Heron; Indian Robin; Indian Roller; Laughing Dove; Plain Prinia; Purple Sunbird; Red-naped Ibis; Red-vented Bulbul; Red-wattled Lapwing; Rose-ringed Parakeet; Spotted Flycatcher; Spotted Owlet; Tree Pipit; White-tailed Iora; White-throated Kingfisher; Wire-tailed Swallow","n_species":24,"focal_species_seen":"Spotted Flycatcher","focal_species_slugs":"spotted-flycatcher","has_focal":true,"GRID_CODE":"GJ-KU-MAN-008","DISTRICT":"Kachchh","BLOCK":"Mandvi"},"geometry":{"type":"Point","coordinates":[69.4103987,23.0976752]}},{"type":"Feature","properties":{"GROUP.ID":"G10883222","LOCALITY":"T29G2Unnamed Road, Kachchh, Gujarat, IN (23.35, 70.615)","LATITUDE":23.349959,"LONGITUDE":70.6146177,"OBSERVATION.DATE":"2023-09-24","OBSERVER.ID":"obsr914590","DURATION.MINUTES":59.0,"SAMPLING.EVENT.IDENTIFIER":"S150610161","species_list":"Ashy-crowned Sparrow-Lark; Barn Swallow; Bay-backed Shrike; Black Francolin; Blyth's Reed Warbler; Common Babbler; Eastern Cattle-Egret; Eurasian Collared-Dove; Eurasian Wryneck; Gray Francolin; Gray Heron; Great Gray Shrike; House Crow; Indian Bushlark; Indian Robin; Indian Silverbill; Jungle Prinia; Laughing Dove; Lesser Whitethroat; Purple Sunbird; Red-backed Shrike; Red-tailed Shrike; Red-vented Bulbul; Red-wattled Lapwing; Small Minivet; Streak-throated Swallow; Tawny Pipit; Variable Wheatear; White-eared Bulbul; Zitting Cisticola","n_species":30,"focal_species_seen":"Red-backed Shrike; Red-tailed Shrike","focal_species_slugs":"red-backed-shrike;red-tailed-shrike","has_focal":true,"GRID_CODE":"GJ-KU-BHA-048","DISTRICT":"Kachchh","BLOCK":"Bhachau"},"geometry":{"type":"Point","coordinates":[70.6146177,23.349959]}},{"type":"Feature","properties":{"GROUP.ID":"G10883963","LOCALITY":"PMC_23 T5G4","LATITUDE":23.478646,"LONGITUDE":68.983133,"OBSERVATION.DATE":"2023-09-24","OBSERVER.ID":"obsr1662974","DURATION.MINUTES":40.0,"SAMPLING.EVENT.IDENTIFIER":"S150611826","species_list":"Asian Green Bee-eater; Barred Buttonquail; Bay-backed Shrike; Black-headed Bunting; Black Francolin; Brahminy Starling; Common Babbler; Common Woodshrike; Eastern Cattle-Egret; Eurasian Collared-Dove; Eurasian Wryneck; European Roller; Gray-necked Bunting; Gray Francolin; Indian Bushlark; Indian Peafowl; Indian Robin; Laughing Dove; Red-wattled Lapwing; Rose-ringed Parakeet; Rosy Starling; Rufous-fronted Prinia; White-browed Wagtail; White-tailed Iora; White-throated Kingfisher; Yellow-throated Sparrow; Zitting Cisticola","n_species":27,"focal_species_seen":"European Roller","focal_species_slugs":"european-roller","has_focal":true,"GRID_CODE":"GJ-KU-NAK-016","DISTRICT":"Kachchh","BLOCK":"Nakhatrana"},"geometry":{"type":"Point","coordinates":[68.983133,23.478646]}},{"type":"Feature","properties":{"GROUP.ID":"G10891907","LOCALITY":"PMC_23 T32G7","LATITUDE":23.5749574,"LONGITUDE":70.4111948,"OBSERVATION.DATE":"2023-09-24","OBSERVER.ID":"obsr413366","DURATION.MINUTES":82.0,"SAMPLING.EVENT.IDENTIFIER":"S150611947","species_list":"Ashy-crowned Sparrow-Lark; Asian Green Bee-eater; Asian Koel; Barred Buttonquail; Bay-backed Shrike; Baya Weaver; Black-winged Kite; Black Drongo; Blue-cheeked Bee-eater; Caspian Tern; Common Babbler; Common Myna; Common Sandpiper; Crested Lark; Delicate Prinia; Eastern Cattle-Egret; Eastern Red-rumped Swallow; Eurasian Collared-Dove; Eurasian Wryneck; European Roller; Glossy Ibis; Gray-breasted Prinia; Gray Francolin; Greater Coucal; House Sparrow; Indian Peafowl; Indian Pond-Heron; Indian Robin; Indian Silverbill; Laughing Dove; Lesser Whitethroat; Long-tailed Shrike; Paddyfield Pipit; Pied Cuckoo; Red-naped Ibis; Red-vented Bulbul; Red-wattled Lapwing; Red Collared-Dove; Rose-ringed Parakeet; Rufous-tailed Lark; Siberian Stonechat; Spotted Flycatcher; White-tailed Iora; White-throated Kingfisher; Wire-tailed Swallow; Yellow-throated Sparrow","n_species":46,"focal_species_seen":"Blue-cheeked Bee-eater; European Roller; Spotted Flycatcher","focal_species_slugs":"blue-cheeked-bee-eater;european-roller;spotted-flycatcher","has_focal":true,"GRID_CODE":"GJ-KU-BHA-014","DISTRICT":"Kachchh","BLOCK":"Bhachau"},"geometry":{"type":"Point","coordinates":[70.4111948,23.5749574]}},{"type":"Feature","properties":{"GROUP.ID":"G10889367","LOCALITY":"PMC2023_T31_G5","LATITUDE":23.3438667,"LONGITUDE":70.063,"OBSERVATION.DATE":"2023-09-24","OBSERVER.ID":"obsr1155883","DURATION.MINUTES":93.0,"SAMPLING.EVENT.IDENTIFIER":"S150612517","species_list":"Asian Green Bee-eater; Asian Koel; Black Francolin; Black Redstart; Common Hoopoe; Common Sandpiper; Common Tailorbird; Delicate Prinia; Eurasian Collared-Dove; Gray-breasted Prinia; Gray Francolin; Indian Robin; Isabelline Wheatear; Jungle Prinia; Laughing Dove; Lesser Whitethroat; Paddyfield Pipit; Pied Cuckoo; Plain Prinia; Purple Sunbird; Red-vented Bulbul; Red-wattled Lapwing; Red Collared-Dove; Rufous-fronted Prinia; Rufous-tailed Scrub-Robin; Siberian Stonechat; Tawny Pipit; Tree Pipit; White-eared Bulbul; Wire-tailed Swallow; Yellow-eyed Babbler; Yellow-wattled Lapwing","n_species":32,"focal_species_seen":"Rufous-tailed Scrub-Robin","focal_species_slugs":"rufous-tailed-scrub-robin","has_focal":true,"GRID_CODE":"GJ-KU-ANJ-003","DISTRICT":"Kachchh","BLOCK":"Anjar"},"geometry":{"type":"Point","coordinates":[70.063,23.3438667]}},{"type":"Feature","properties":{"GROUP.ID":"G10884077","LOCALITY":"PMC2023_T15G","LATITUDE":23.1382114,"LONGITUDE":69.6353876,"OBSERVATION.DATE":"2023-09-24","OBSERVER.ID":"obsr2335329","DURATION.MINUTES":45.0,"SAMPLING.EVENT.IDENTIFIER":"S150612605","species_list":"Asian Green Bee-eater; Bay-backed Shrike; Baya Weaver; Black Drongo; Brahminy Starling; Common Hoopoe; Common Kingfisher; Common Myna; Common Sandpiper; Eurasian Collared-Dove; Eurasian Moorhen; Eurasian Wryneck; Glossy Ibis; Gray Francolin; Greater Coucal; House Sparrow; Indian Pond-Heron; Indian Robin; Indian Silverbill; Little Egret; Little Grebe; Long-tailed Shrike; Oriental Honey-buzzard; Purple Sunbird; Red-vented Bulbul; Red-wattled Lapwing; Rose-ringed Parakeet; Variable Wheatear; White-throated Kingfisher; Yellow-throated Sparrow","n_species":30,"focal_species_seen":"","focal_species_slugs":"","has_focal":false,"GRID_CODE":"GJ-KU-BHU-155","DISTRICT":"Kachchh","BLOCK":"Bhuj"},"geometry":{"type":"Point","coordinates":[69.6353876,23.1382114]}},{"type":"Feature","properties":{"GROUP.ID":"G10894027","LOCALITY":"PMC2023_T10G7","LATITUDE":23.4353383,"LONGITUDE":69.0810985,"OBSERVATION.DATE":"2023-09-24","OBSERVER.ID":"obsr870545","DURATION.MINUTES":37.0,"SAMPLING.EVENT.IDENTIFIER":"S150613631","species_list":"Ashy-crowned Sparrow-Lark; Asian Green Bee-eater; Barred Buttonquail; European Roller; Gray-necked Bunting; Indian Robin; Indian Roller; Indian Silverbill; Laughing Dove; Plain Prinia; Red-vented Bulbul; Red-wattled Lapwing; Sirkeer Malkoha; Small Minivet; Spotted Flycatcher; Wire-tailed Swallow; Yellow-wattled Lapwing","n_species":17,"focal_species_seen":"European Roller; Spotted Flycatcher","focal_species_slugs":"european-roller;spotted-flycatcher","has_focal":true,"GRID_CODE":"GJ-KU-NAK-030","DISTRICT":"Kachchh","BLOCK":"Nakhatrana"},"geometry":{"type":"Point","coordinates":[69.0810985,23.4353383]}},{"type":"Feature","properties":{"GROUP.ID":"G10884681","LOCALITY":"PMC2023_T2G4","LATITUDE":23.7105547,"LONGITUDE":68.6346222,"OBSERVATION.DATE":"2023-09-24","OBSERVER.ID":"obsr1173605","DURATION.MINUTES":29.0,"SAMPLING.EVENT.IDENTIFIER":"S150613798","species_list":"Ashy-crowned Sparrow-Lark; Asian Green Bee-eater; Black Francolin; Booted Eagle; Common Babbler; Common Hoopoe; Eurasian Collared-Dove; European Roller; Gray Francolin; Indian Bushlark; Indian Silverbill; Laughing Dove; Paddyfield Pipit; Purple Sunbird; Rosy Starling; Rufous-fronted Prinia; Variable Wheatear; White-eared Bulbul","n_species":18,"focal_species_seen":"European Roller","focal_species_slugs":"european-roller","has_focal":true,"GRID_CODE":"GJ-KU-LAK-009","DISTRICT":"Kachchh","BLOCK":"Lakhpat"},"geometry":{"type":"Point","coordinates":[68.6346222,23.7105547]}},{"type":"Feature","properties":{"GROUP.ID":"G11190395","LOCALITY":"PMC2023_T8G2","LATITUDE":23.5589483,"LONGITUDE":69.18575,"OBSERVATION.DATE":"2023-09-24","OBSERVER.ID":"obsr1588246","DURATION.MINUTES":20.0,"SAMPLING.EVENT.IDENTIFIER":"S150615818","species_list":"Ashy-crowned Sparrow-Lark; Asian Green Bee-eater; Common Babbler; Common Tailorbird; European Roller; Green Sandpiper; House Crow; Indian Peafowl; Plain Prinia; Purple Sunbird; Red-vented Bulbul; White-eared Bulbul; White-throated Kingfisher","n_species":13,"focal_species_seen":"European Roller","focal_species_slugs":"european-roller","has_focal":true,"GRID_CODE":"GJ-KU-NAK-012","DISTRICT":"Kachchh","BLOCK":"Nakhatrana"},"geometry":{"type":"Point","coordinates":[69.18575,23.5589483]}},{"type":"Feature","properties":{"GROUP.ID":"G10894889","LOCALITY":"T19_G6","LATITUDE":23.1166461,"LONGITUDE":69.8568135,"OBSERVATION.DATE":"2023-09-24","OBSERVER.ID":"obsr612947","DURATION.MINUTES":12.0,"SAMPLING.EVENT.IDENTIFIER":"S150615993","species_list":"Ashy-crowned Sparrow-Lark; Asian Green Bee-eater; Barn Swallow; Bay-backed Shrike; Black-headed Bunting; Black Drongo; Common Babbler; Common Cuckoo; Common Hoopoe; Common Myna; Common Tailorbird; Eastern Cattle-Egret; Eurasian Collared-Dove; Eurasian Wryneck; European Roller; Gray-breasted Prinia; Gray Francolin; Greater Coucal; House Sparrow; Indian Bushlark; Indian Peafowl; Indian Robin; Indian Silverbill; Laughing Dove; Little Swift; Pied Cuckoo; Plain Prinia; Purple Sunbird; Red-vented Bulbul; Red-wattled Lapwing; Rose-ringed Parakeet; Rosy Starling; Siberian Stonechat; Small Minivet; Spotted Flycatcher; Variable Wheatear; White-eared Bulbul; White-throated Kingfisher; Yellow-eyed Babbler","n_species":39,"focal_species_seen":"Common Cuckoo; European Roller; Spotted Flycatcher","focal_species_slugs":"common-cuckoo;european-roller;spotted-flycatcher","has_focal":true,"GRID_CODE":"GJ-KU-ANJ-021","DISTRICT":"Kachchh","BLOCK":"Anjar"},"geometry":{"type":"Point","coordinates":[69.8568135,23.1166461]}},{"type":"Feature","properties":{"GROUP.ID":"G10894025","LOCALITY":"PMC2023_T10G5","LATITUDE":23.3928907,"LONGITUDE":69.0176699,"OBSERVATION.DATE":"2023-09-24","OBSERVER.ID":"obsr870545","DURATION.MINUTES":8.0,"SAMPLING.EVENT.IDENTIFIER":"S150617642","species_list":"Ashy-crowned Sparrow-Lark; Asian Green Bee-eater; Asian Koel; Brahminy Starling; Brown Rock Chat; Eurasian Collared-Dove; Gray-necked Bunting; Indian Bushlark; Indian Peafowl; Indian Robin; Indian Roller; Indian Silverbill; Indian Thick-knee; Laughing Dove; Pied Cuckoo; Plain Prinia; Red Collared-Dove; Rosy Starling; Rufous-fronted Prinia","n_species":19,"focal_species_seen":"","focal_species_slugs":"","has_focal":false,"GRID_CODE":"GJ-KU-ABD-019","DISTRICT":"Kachchh","BLOCK":"Abdasa"},"geometry":{"type":"Point","coordinates":[69.0176699,23.3928907]}},{"type":"Feature","properties":{"GROUP.ID":"G10894024","LOCALITY":"PMC2023_T10G4","LATITUDE":23.3433043,"LONGITUDE":69.2393113,"OBSERVATION.DATE":"2023-09-24","OBSERVER.ID":"obsr870545","DURATION.MINUTES":4.0,"SAMPLING.EVENT.IDENTIFIER":"S150623861","species_list":"Black-winged Kite; Black Drongo; Brown Rock Chat; Common Hoopoe; Common Tailorbird; Common Woodshrike; Eastern Cattle-Egret; Eurasian Spoonbill; European Roller; Gray Francolin; Gray Heron; Great Egret; Indian Peafowl; Indian Pond-Heron; Indian Robin; Indian Roller; Laughing Dove; Red-vented Bulbul; Red-wattled Lapwing; Rosy Starling; Rufous-fronted Prinia","n_species":21,"focal_species_seen":"European Roller","focal_species_slugs":"european-roller","has_focal":true,"GRID_CODE":"GJ-KU-NAK-051","DISTRICT":"Kachchh","BLOCK":"Nakhatrana"},"geometry":{"type":"Point","coordinates":[69.2393113,23.3433043]}},{"type":"Feature","properties":{"GROUP.ID":"G10910219","LOCALITY":"PMC2023_T17G3","LATITUDE":23.470181,"LONGITUDE":69.61789,"OBSERVATION.DATE":"2023-09-24","OBSERVER.ID":"obsr1522701","DURATION.MINUTES":26.0,"SAMPLING.EVENT.IDENTIFIER":"S150623919","species_list":"Asian Green Bee-eater; Barn Swallow; Desert Wheatear; Eurasian Collared-Dove; Greater Short-toed Lark; House Crow; Isabelline Shrike; Isabelline Wheatear; Montagu's Harrier; Red-naped Ibis; Red-wattled Lapwing; Tawny Pipit; Variable Wheatear; White-eared Bulbul; Wire-tailed Swallow","n_species":15,"focal_species_seen":"","focal_species_slugs":"","has_focal":false,"GRID_CODE":"GJ-KU-LIT-039","DISTRICT":"Kachchh","BLOCK":"Little Rann"},"geometry":{"type":"Point","coordinates":[69.61789,23.470181]}},{"type":"Feature","properties":{"GROUP.ID":"G10910218","LOCALITY":"PMC2023_T17G1","LATITUDE":23.437915,"LONGITUDE":69.580097,"OBSERVATION.DATE":"2023-09-24","OBSERVER.ID":"obsr1522701","DURATION.MINUTES":63.0,"SAMPLING.EVENT.IDENTIFIER":"S150624025","species_list":"Ashy-crowned Sparrow-Lark; Asian Green Bee-eater; Eastern Cattle-Egret; Eurasian Collared-Dove; European Roller; Greater Coucal; Greater Whitethroat; Laughing Dove; Oriental Honey-buzzard; Purple Sunbird; Variable Wheatear; White-tailed Iora","n_species":12,"focal_species_seen":"European Roller; Greater Whitethroat","focal_species_slugs":"european-roller;greater-whitethroat","has_focal":true,"GRID_CODE":"GJ-KU-NAK-040","DISTRICT":"Kachchh","BLOCK":"Nakhatrana"},"geometry":{"type":"Point","coordinates":[69.580097,23.437915]}},{"type":"Feature","properties":{"GROUP.ID":"G10910217","LOCALITY":"PMC2023_T17G2","LATITUDE":23.467502,"LONGITUDE":69.510857,"OBSERVATION.DATE":"2023-09-24","OBSERVER.ID":"obsr1522701","DURATION.MINUTES":25.0,"SAMPLING.EVENT.IDENTIFIER":"S150624135","species_list":"Ashy-crowned Sparrow-Lark; Asian Green Bee-eater; Black-winged Kite; Eastern Cattle-Egret; Gray Francolin; Lesser Whitethroat; Purple Sunbird; Red-vented Bulbul; Rufous-fronted Prinia; White-eared Bulbul","n_species":10,"focal_species_seen":"","focal_species_slugs":"","has_focal":false,"GRID_CODE":"GJ-KU-NAK-027","DISTRICT":"Kachchh","BLOCK":"Nakhatrana"},"geometry":{"type":"Point","coordinates":[69.510857,23.467502]}},{"type":"Feature","properties":{"GROUP.ID":"G11248121","LOCALITY":"PMC2023_T28G1","LATITUDE":23.4960646,"LONGITUDE":70.641527,"OBSERVATION.DATE":"2023-09-23","OBSERVER.ID":"obsr908812","DURATION.MINUTES":29.0,"SAMPLING.EVENT.IDENTIFIER":"S150625747","species_list":"Ashy-crowned Sparrow-Lark; Asian Green Bee-eater; Common Babbler; Dusky Crag-Martin; Eurasian Collared-Dove; House Sparrow; Indian Bushlark; Indian Robin; Red-vented Bulbul; White-eared Bulbul","n_species":10,"focal_species_seen":"","focal_species_slugs":"","has_focal":false,"GRID_CODE":"GJ-KU-RAP-074","DISTRICT":"Kachchh","BLOCK":"Rapar"},"geometry":{"type":"Point","coordinates":[70.641527,23.4960646]}},{"type":"Feature","properties":{"GROUP.ID":"G11190393","LOCALITY":"Kutchch--General Area (OBI)","LATITUDE":23.2428716,"LONGITUDE":69.6552078,"OBSERVATION.DATE":"2023-09-24","OBSERVER.ID":"obsr1588246","DURATION.MINUTES":null,"SAMPLING.EVENT.IDENTIFIER":"S150626428","species_list":"Red-naped Ibis","n_species":1,"focal_species_seen":"","focal_species_slugs":"","has_focal":false,"GRID_CODE":"GJ-KU-BHU-134","DISTRICT":"Kachchh","BLOCK":"Bhuj"},"geometry":{"type":"Point","coordinates":[69.6552078,23.2428716]}},{"type":"Feature","properties":{"GROUP.ID":"G10884690","LOCALITY":"PMC2023_T2G7","LATITUDE":23.7997961,"LONGITUDE":68.7882965,"OBSERVATION.DATE":"2023-09-24","OBSERVER.ID":"obsr1055226","DURATION.MINUTES":27.0,"SAMPLING.EVENT.IDENTIFIER":"S150626451","species_list":"Ashy-crowned Sparrow-Lark; Asian Green Bee-eater; Common Babbler; Eastern Cattle-Egret; Eurasian Kestrel; European Roller; Gray-necked Bunting; Gray Francolin; House Crow; Indian Bushlark; Jungle Prinia; Long-tailed Shrike; Paddyfield Pipit; Purple Sunbird; Red-vented Bulbul; Rufous-fronted Prinia; White-eared Bulbul","n_species":17,"focal_species_seen":"European Roller","focal_species_slugs":"european-roller","has_focal":true,"GRID_CODE":"GJ-KU-LAK-005","DISTRICT":"Kachchh","BLOCK":"Lakhpat"},"geometry":{"type":"Point","coordinates":[68.7882965,23.7997961]}},{"type":"Feature","properties":{"GROUP.ID":"G10884653","LOCALITY":"PMC2023_T26G6","LATITUDE":23.9307647,"LONGITUDE":70.6267687,"OBSERVATION.DATE":"2023-09-24","OBSERVER.ID":"obsr1430296","DURATION.MINUTES":26.0,"SAMPLING.EVENT.IDENTIFIER":"S150626473","species_list":"Asian Green Bee-eater; Baya Weaver; Blue-cheeked Bee-eater; Common Babbler; Eastern Cattle-Egret; Eurasian Collared-Dove; European Roller; Greater Flamingo; Indian Peafowl; Indian Pond-Heron; Indian Robin; Indian Silverbill; Isabelline Shrike; Laughing Dove; Lesser Flamingo; Purple Sunbird; Red-wattled Lapwing; Red Collared-Dove; Rufous-tailed Scrub-Robin; Variable Wheatear; White-eared Bulbul","n_species":21,"focal_species_seen":"Blue-cheeked Bee-eater; European Roller; Rufous-tailed Scrub-Robin","focal_species_slugs":"blue-cheeked-bee-eater;european-roller;rufous-tailed-scrub-robin","has_focal":true,"GRID_CODE":"GJ-KU-RAP-002","DISTRICT":"Kachchh","BLOCK":"Rapar"},"geometry":{"type":"Point","coordinates":[70.6267687,23.9307647]}},{"type":"Feature","properties":{"GROUP.ID":"G10884689","LOCALITY":"PMC2023_T2G5","LATITUDE":23.7394372,"LONGITUDE":68.750245,"OBSERVATION.DATE":"2023-09-24","OBSERVER.ID":"obsr1055226","DURATION.MINUTES":74.0,"SAMPLING.EVENT.IDENTIFIER":"S150626582","species_list":"Ashy-crowned Sparrow-Lark; Asian Green Bee-eater; Bay-backed Shrike; Black-winged Kite; Black Drongo; Brahminy Starling; Common Hoopoe; Common Sandpiper; Eastern Cattle-Egret; Eurasian Coot; European Roller; Gray-necked Bunting; Gray Francolin; Indian Peafowl; Laughing Dove; Little Grebe; Long-billed Pipit; Purple Sunbird; Red-vented Bulbul; Red-wattled Lapwing; Rosy Starling; Rufous-fronted Prinia; Variable Wheatear; White-eared Bulbul; White-throated Kingfisher; Wire-tailed Swallow","n_species":26,"focal_species_seen":"European Roller","focal_species_slugs":"european-roller","has_focal":true,"GRID_CODE":"GJ-KU-LAK-011","DISTRICT":"Kachchh","BLOCK":"Lakhpat"},"geometry":{"type":"Point","coordinates":[68.750245,23.7394372]}},{"type":"Feature","properties":{"GROUP.ID":"G10884645","LOCALITY":"PMC2023_T26G5","LATITUDE":23.8770382,"LONGITUDE":70.76947,"OBSERVATION.DATE":"2023-09-23","OBSERVER.ID":"obsr1526687","DURATION.MINUTES":94.0,"SAMPLING.EVENT.IDENTIFIER":"S150627385","species_list":"Ashy-crowned Sparrow-Lark; Asian Green Bee-eater; Bay-backed Shrike; Black Drongo; Common Hoopoe; Common Tailorbird; Eurasian Collared-Dove; Eurasian Wryneck; European Roller; Gray-necked Bunting; Gray Francolin; Indian Peafowl; Indian Robin; Laughing Dove; Lesser Whitethroat; Little Grebe; Purple Sunbird; Red-vented Bulbul; Rufous-tailed Lark; Short-toed Snake-Eagle; Spotted Flycatcher; White-eared Bulbul; White-throated Kingfisher","n_species":23,"focal_species_seen":"European Roller; Spotted Flycatcher","focal_species_slugs":"european-roller;spotted-flycatcher","has_focal":true,"GRID_CODE":"GJ-KU-RAP-007","DISTRICT":"Kachchh","BLOCK":"Rapar"},"geometry":{"type":"Point","coordinates":[70.76947,23.8770382]}},{"type":"Feature","properties":{"GROUP.ID":"G10884697","LOCALITY":"PMC2023_T26G3","LATITUDE":23.848511,"LONGITUDE":70.8261289,"OBSERVATION.DATE":"2023-09-23","OBSERVER.ID":"obsr1430296","DURATION.MINUTES":27.0,"SAMPLING.EVENT.IDENTIFIER":"S150628250","species_list":"Asian Green Bee-eater; Barn Swallow; Baya Weaver; Eurasian Collared-Dove; European Roller; Greater Flamingo; House Sparrow; Indian Peafowl; Laughing Dove; Little Cormorant; Northern Shoveler; Pied Kingfisher; Red Collared-Dove; Rosy Starling; Rufous-fronted Prinia; White-breasted Waterhen; White-eared Bulbul; Yellow-throated Sparrow","n_species":18,"focal_species_seen":"European Roller","focal_species_slugs":"european-roller","has_focal":true,"GRID_CODE":"GJ-KU-RAP-013","DISTRICT":"Kachchh","BLOCK":"Rapar"},"geometry":{"type":"Point","coordinates":[70.8261289,23.848511]}},{"type":"Feature","properties":{"GROUP.ID":"G10884777","LOCALITY":"PMC2023_T26G4","LATITUDE":23.8977516,"LONGITUDE":70.6920849,"OBSERVATION.DATE":"2023-09-24","OBSERVER.ID":"obsr1526687","DURATION.MINUTES":78.0,"SAMPLING.EVENT.IDENTIFIER":"S150628654","species_list":"Ashy-crowned Sparrow-Lark; Asian Green Bee-eater; Baya Weaver; Brahminy Starling; Common Hoopoe; Common Tailorbird; Eurasian Kestrel; European Roller; Gray Francolin; Indian Peafowl; Indian Robin; Laughing Dove; Lesser Whistling-Duck; Lesser Whitethroat; Pied Cuckoo; Purple Sunbird; Red-vented Bulbul; Red-wattled Lapwing; River Tern; Rufous-fronted Prinia; Rufous-tailed Lark; White-eared Bulbul","n_species":22,"focal_species_seen":"European Roller","focal_species_slugs":"european-roller","has_focal":true,"GRID_CODE":"GJ-KU-RAP-005","DISTRICT":"Kachchh","BLOCK":"Rapar"},"geometry":{"type":"Point","coordinates":[70.6920849,23.8977516]}},{"type":"Feature","properties":{"GROUP.ID":"G10884832","LOCALITY":"PMC_23 T13G2","LATITUDE":22.8500167,"LONGITUDE":69.2262057,"OBSERVATION.DATE":"2023-09-23","OBSERVER.ID":"obsr2176608","DURATION.MINUTES":53.0,"SAMPLING.EVENT.IDENTIFIER":"S150630213","species_list":"Barn Swallow; Baya Weaver; Black Drongo; Common Babbler; Common Cuckoo; Common Hoopoe; Common Kingfisher; Common Myna; Common Sandpiper; Dusky Crag-Martin; Eurasian Spoonbill; European Roller; Gray Francolin; Greater Whitethroat; House Sparrow; Indian Cormorant; Indian Pond-Heron; Indian Robin; Indian Silverbill; Lesser Whitethroat; Little Cormorant; Long-tailed Shrike; Paddyfield Pipit; Pied Kingfisher; Plain Prinia; Purple Sunbird; Red-backed Shrike; Red-vented Bulbul; Red-wattled Lapwing; Red Collared-Dove; River Tern; Rosy Starling; Ruff; Rufous-fronted Prinia; Spotted Flycatcher; Streak-throated Swallow; Sykes's Warbler; Western Reef-Heron; Wire-tailed Swallow; Yellow-wattled Lapwing","n_species":40,"focal_species_seen":"Common Cuckoo; European Roller; Greater Whitethroat; Red-backed Shrike; Spotted Flycatcher","focal_species_slugs":"common-cuckoo;european-roller;greater-whitethroat;red-backed-shrike;spotted-flycatcher","has_focal":true,"GRID_CODE":"GJ-KU-MAN-046","DISTRICT":"Kachchh","BLOCK":"Mandvi"},"geometry":{"type":"Point","coordinates":[69.2262057,22.8500167]}},{"type":"Feature","properties":{"GROUP.ID":"G10884799","LOCALITY":"PMC2023_T26G2","LATITUDE":23.7721291,"LONGITUDE":70.8631766,"OBSERVATION.DATE":"2023-09-23","OBSERVER.ID":"obsr1430296","DURATION.MINUTES":28.0,"SAMPLING.EVENT.IDENTIFIER":"S150630311","species_list":"Barn Swallow; Black-tailed Godwit; Caspian Tern; Common Sandpiper; Eastern Cattle-Egret; Gray Heron; Laughing Dove; Little Cormorant; Little Tern; Painted Stork; Pied Avocet; Pied Kingfisher; River Tern; Rosy Starling; Western Marsh Harrier; Whiskered Tern","n_species":16,"focal_species_seen":"","focal_species_slugs":"","has_focal":false,"GRID_CODE":"GJ-KU-RAN-519","DISTRICT":"Kachchh","BLOCK":"Rann of Kachchh"},"geometry":{"type":"Point","coordinates":[70.8631766,23.7721291]}},{"type":"Feature","properties":{"GROUP.ID":"G10889172","LOCALITY":"PMC2023_T14G6","LATITUDE":23.1238853,"LONGITUDE":69.3267794,"OBSERVATION.DATE":"2023-09-24","OBSERVER.ID":"obsr1173703","DURATION.MINUTES":29.0,"SAMPLING.EVENT.IDENTIFIER":"S150636096","species_list":"Asian Green Bee-eater; Black-winged Kite; Black Drongo; Brahminy Starling; Common Babbler; Common Myna; Common Tailorbird; Eastern Cattle-Egret; Eastern Red-rumped Swallow; Eurasian Wryneck; Gray-breasted Prinia; Gray Francolin; Greater Coucal; Indian Golden Oriole; Indian Robin; Indian Roller; Laughing Dove; Plain Prinia; Purple Sunbird; Red-vented Bulbul; Red-wattled Lapwing; Small Minivet; Spotted Flycatcher; White-throated Kingfisher","n_species":24,"focal_species_seen":"Spotted Flycatcher","focal_species_slugs":"spotted-flycatcher","has_focal":true,"GRID_CODE":"GJ-KU-NAK-068","DISTRICT":"Kachchh","BLOCK":"Nakhatrana"},"geometry":{"type":"Point","coordinates":[69.3267794,23.1238853]}},{"type":"Feature","properties":{"GROUP.ID":"G10910210","LOCALITY":"PMC2023_T17G6","LATITUDE":23.607659,"LONGITUDE":69.506129,"OBSERVATION.DATE":"2023-09-23","OBSERVER.ID":"obsr1522701","DURATION.MINUTES":29.0,"SAMPLING.EVENT.IDENTIFIER":"S150662261","species_list":"Asian Green Bee-eater; Blue-cheeked Bee-eater; Green Sandpiper; Isabelline Shrike; Pied Cuckoo; Red-wattled Lapwing; Rufous-fronted Prinia; Tibetan Sand-Plover; Western Yellow Wagtail; Whiskered Tern; White-eared Bulbul","n_species":11,"focal_species_seen":"Blue-cheeked Bee-eater","focal_species_slugs":"blue-cheeked-bee-eater","has_focal":true,"GRID_CODE":"GJ-KU-LIT-012","DISTRICT":"Kachchh","BLOCK":"Little Rann"},"geometry":{"type":"Point","coordinates":[69.506129,23.607659]}},{"type":"Feature","properties":{"GROUP.ID":"G10891097","LOCALITY":"PMC2023_T7G2","LATITUDE":23.6679876,"LONGITUDE":69.6059481,"OBSERVATION.DATE":"2023-09-23","OBSERVER.ID":"obsr457663","DURATION.MINUTES":18.0,"SAMPLING.EVENT.IDENTIFIER":"S150708181","species_list":"Blue-cheeked Bee-eater; European Roller","n_species":2,"focal_species_seen":"Blue-cheeked Bee-eater; European Roller","focal_species_slugs":"blue-cheeked-bee-eater;european-roller","has_focal":true,"GRID_CODE":"GJ-KU-BHU-047","DISTRICT":"Kachchh","BLOCK":"Bhuj"},"geometry":{"type":"Point","coordinates":[69.6059481,23.6679876]}},{"type":"Feature","properties":{"GROUP.ID":"G10891104","LOCALITY":"PMC2023_T25G7","LATITUDE":23.9227617,"LONGITUDE":70.1802333,"OBSERVATION.DATE":"2023-09-24","OBSERVER.ID":"obsr604291","DURATION.MINUTES":57.0,"SAMPLING.EVENT.IDENTIFIER":"S150713384","species_list":"Ashy-crowned Sparrow-Lark; Asian Koel; Bay-backed Shrike; Baya Weaver; Blue-cheeked Bee-eater; Chestnut-bellied Sandgrouse; Common Hoopoe; Common Tailorbird; Crested Lark; Eastern Red-rumped Swallow; Eurasian Collared-Dove; Eurasian Wryneck; European Roller; Great Gray Shrike; Greater Whitethroat; Green Sandpiper; Gull-billed Tern; House Sparrow; Indian Peafowl; Indian Robin; Indian Silverbill; Laughing Dove; Lesser Whitethroat; Little Cormorant; Purple Sunbird; Red-vented Bulbul; Red Collared-Dove; Striolated Bunting; Variable Wheatear; Western Reef-Heron; White-eared Bulbul; Wire-tailed Swallow; Yellow-throated Sparrow","n_species":33,"focal_species_seen":"Blue-cheeked Bee-eater; European Roller; Greater Whitethroat","focal_species_slugs":"blue-cheeked-bee-eater;european-roller;greater-whitethroat","has_focal":true,"GRID_CODE":"GJ-KU-BHA-001","DISTRICT":"Kachchh","BLOCK":"Bhachau"},"geometry":{"type":"Point","coordinates":[70.1802333,23.9227617]}},{"type":"Feature","properties":{"GROUP.ID":"G10890904","LOCALITY":"PMC2023_T1G5","LATITUDE":23.6919436,"LONGITUDE":69.016344,"OBSERVATION.DATE":"2023-09-24","OBSERVER.ID":"obsr1241180","DURATION.MINUTES":67.0,"SAMPLING.EVENT.IDENTIFIER":"S150716571","species_list":"Ashy-crowned Sparrow-Lark; Asian Green Bee-eater; Barred Buttonquail; Bay-backed Shrike; Black Redstart; Brahminy Starling; Common Babbler; Common Tailorbird; Common Woodshrike; Eastern Red-rumped Swallow; Eurasian Collared-Dove; Eurasian Kestrel; Eurasian Wryneck; European Roller; Gray-breasted Prinia; Gray-necked Bunting; Gray Francolin; Great Gray Shrike; Greater Coucal; Indian Bushlark; Indian Cormorant; Indian Robin; Indian Silverbill; Jungle Prinia; Laughing Dove; Lesser Whitethroat; Medium Egret; Pied Bushchat; Pied Cuckoo; Plain Prinia; Purple Sunbird; Red-vented Bulbul; Red-wattled Lapwing; Rufous-fronted Prinia; Rufous-tailed Scrub-Robin; Sirkeer Malkoha; Small Minivet; Streak-throated Swallow; Striolated Bunting; Variable Wheatear; White-eared Bulbul; Wire-tailed Swallow; Yellow-throated Sparrow","n_species":43,"focal_species_seen":"European Roller; Rufous-tailed Scrub-Robin","focal_species_slugs":"european-roller;rufous-tailed-scrub-robin","has_focal":true,"GRID_CODE":"GJ-KU-LAK-027","DISTRICT":"Kachchh","BLOCK":"Lakhpat"},"geometry":{"type":"Point","coordinates":[69.016344,23.6919436]}},{"type":"Feature","properties":{"GROUP.ID":"G10890962","LOCALITY":"PMC2023_T1G3","LATITUDE":23.680308,"LONGITUDE":68.8645376,"OBSERVATION.DATE":"2023-09-23","OBSERVER.ID":"obsr1241180","DURATION.MINUTES":62.0,"SAMPLING.EVENT.IDENTIFIER":"S150717326","species_list":"Ashy-crowned Sparrow-Lark; Asian Green Bee-eater; Asian Koel; Barred Buttonquail; Bay-backed Shrike; Baya Weaver; Black-winged Kite; Black-winged Stilt; Black Drongo; Black Redstart; Brahminy Starling; Chestnut-bellied Sandgrouse; Common Babbler; Common Hoopoe; Common Kingfisher; Common Tailorbird; Eastern Cattle-Egret; Eurasian Curlew; Eurasian Wryneck; European Roller; Gray-breasted Prinia; Gray-necked Bunting; Gray Francolin; Great Gray Shrike; Green Sandpiper; House Sparrow; Indian Pond-Heron; Indian Robin; Indian Silverbill; Indian Spot-billed Duck; Isabelline Shrike; Jungle Prinia; Laughing Dove; Lesser Whistling-Duck; Lesser Whitethroat; Little Cormorant; Little Grebe; Long-tailed Shrike; Oriental Darter; Pied Cuckoo; Purple Sunbird; Red-vented Bulbul; Red-wattled Lapwing; River Tern; Rosy Starling; Rufous-fronted Prinia; Short-toed Snake-Eagle; Siberian Stonechat; Small Minivet; Spotted Flycatcher; Sykes's Warbler; Variable Wheatear; White-tailed Iora; White-throated Kingfisher; Wire-tailed Swallow; Yellow-crowned Woodpecker; Yellow-throated Sparrow","n_species":57,"focal_species_seen":"European Roller; Spotted Flycatcher","focal_species_slugs":"european-roller;spotted-flycatcher","has_focal":true,"GRID_CODE":"GJ-KU-LAK-024","DISTRICT":"Kachchh","BLOCK":"Lakhpat"},"geometry":{"type":"Point","coordinates":[68.8645376,23.680308]}},{"type":"Feature","properties":{"GROUP.ID":"G10891036","LOCALITY":"PMC2023_T1G4","LATITUDE":23.68885,"LONGITUDE":68.9684089,"OBSERVATION.DATE":"2023-09-24","OBSERVER.ID":"obsr1241180","DURATION.MINUTES":78.0,"SAMPLING.EVENT.IDENTIFIER":"S150718737","species_list":"Ashy-crowned Sparrow-Lark; Asian Green Bee-eater; Bay-backed Shrike; Baya Weaver; Black-winged Kite; Black-winged Stilt; Black Drongo; Common Babbler; Common Cuckoo; Common Hoopoe; Common Kingfisher; Common Tailorbird; Eastern Cattle-Egret; Eastern Red-rumped Swallow; Eurasian Collared-Dove; European Roller; Gray-breasted Prinia; Gray Francolin; Greater Whitethroat; Green Sandpiper; House Sparrow; Indian Bushlark; Indian Peafowl; Indian Pond-Heron; Indian Robin; Indian Silverbill; Laughing Dove; Lesser Whistling-Duck; Little Cormorant; Little Grebe; Long-tailed Shrike; Pied Kingfisher; Purple Sunbird; Red-backed Shrike; Red-wattled Lapwing; Rose-ringed Parakeet; Rosy Starling; Rufous-fronted Prinia; Sykes's Warbler; White-throated Kingfisher","n_species":40,"focal_species_seen":"Common Cuckoo; European Roller; Greater Whitethroat; Red-backed Shrike","focal_species_slugs":"common-cuckoo;european-roller;greater-whitethroat;red-backed-shrike","has_focal":true,"GRID_CODE":"GJ-KU-LAK-026","DISTRICT":"Kachchh","BLOCK":"Lakhpat"},"geometry":{"type":"Point","coordinates":[68.9684089,23.68885]}},{"type":"Feature","properties":{"GROUP.ID":"G10891059","LOCALITY":"PMC2023_T1G2","LATITUDE":23.6495435,"LONGITUDE":69.0736101,"OBSERVATION.DATE":"2023-09-24","OBSERVER.ID":"obsr1241180","DURATION.MINUTES":61.0,"SAMPLING.EVENT.IDENTIFIER":"S150719496","species_list":"Ashy-crowned Sparrow-Lark; Asian Green Bee-eater; Bay-backed Shrike; Black-winged Kite; Black Drongo; Brahminy Starling; Brown Rock Chat; Common Babbler; Common Hoopoe; Common Tailorbird; Common Woodshrike; Eastern Red-rumped Swallow; Eurasian Collared-Dove; Eurasian Kestrel; Eurasian Wryneck; European Roller; Gray-breasted Prinia; Gray-necked Bunting; Gray Francolin; Greater Whitethroat; House Sparrow; Indian Bushlark; Indian Silverbill; Laughing Dove; Lesser Whitethroat; Pied Cuckoo; Red-backed Shrike; Red-tailed Shrike; Red-vented Bulbul; Rufous-fronted Prinia; Rufous-tailed Scrub-Robin; Shikra; Small Minivet; Spotted Flycatcher; White-tailed Iora; Yellow-crowned Woodpecker; Yellow-throated Sparrow","n_species":37,"focal_species_seen":"European Roller; Greater Whitethroat; Red-backed Shrike; Red-tailed Shrike; Rufous-tailed Scrub-Robin; Spotted Flycatcher","focal_species_slugs":"european-roller;greater-whitethroat;red-backed-shrike;red-tailed-shrike;rufous-tailed-scrub-robin;spotted-flycatcher","has_focal":true,"GRID_CODE":"GJ-KU-LAK-042","DISTRICT":"Kachchh","BLOCK":"Lakhpat"},"geometry":{"type":"Point","coordinates":[69.0736101,23.6495435]}},{"type":"Feature","properties":{"GROUP.ID":"G10891940","LOCALITY":"PMC_Team23Grid5","LATITUDE":23.560197,"LONGITUDE":69.813607,"OBSERVATION.DATE":"2023-09-23","OBSERVER.ID":"obsr1391386","DURATION.MINUTES":24.0,"SAMPLING.EVENT.IDENTIFIER":"S150731532","species_list":"Asian Green Bee-eater; Bay-backed Shrike; Blue-cheeked Bee-eater; Common Tailorbird; Crested Lark; Desert Wheatear; European Roller; Gray-breasted Prinia; Gray Francolin; Isabelline Shrike; Long-billed Pipit; Purple Sunbird; Red-backed Shrike; River Tern; Rufous-tailed Lark; Variable Wheatear","n_species":16,"focal_species_seen":"Blue-cheeked Bee-eater; European Roller; Red-backed Shrike","focal_species_slugs":"blue-cheeked-bee-eater;european-roller;red-backed-shrike","has_focal":true,"GRID_CODE":"GJ-KU-BHU-076","DISTRICT":"Kachchh","BLOCK":"Bhuj"},"geometry":{"type":"Point","coordinates":[69.813607,23.560197]}},{"type":"Feature","properties":{"GROUP.ID":"G10891942","LOCALITY":"PMC_Team23_Grid2","LATITUDE":23.419098,"LONGITUDE":69.735125,"OBSERVATION.DATE":"2023-09-23","OBSERVER.ID":"obsr1391386","DURATION.MINUTES":32.0,"SAMPLING.EVENT.IDENTIFIER":"S150737442","species_list":"Black-winged Kite; Eurasian Collared-Dove; European Roller; Gray Francolin; Red-wattled Lapwing","n_species":5,"focal_species_seen":"European Roller","focal_species_slugs":"european-roller","has_focal":true,"GRID_CODE":"GJ-KU-BHU-086","DISTRICT":"Kachchh","BLOCK":"Bhuj"},"geometry":{"type":"Point","coordinates":[69.735125,23.419098]}},{"type":"Feature","properties":{"GROUP.ID":"G11248114","LOCALITY":"PMC2023_T13G1","LATITUDE":22.8037957,"LONGITUDE":69.4152401,"OBSERVATION.DATE":"2023-09-24","OBSERVER.ID":"obsr1497019","DURATION.MINUTES":60.0,"SAMPLING.EVENT.IDENTIFIER":"S150782176","species_list":"Ashy-crowned Sparrow-Lark; Asian Green Bee-eater; Bay-backed Shrike; Baya Weaver; Black Drongo; Chestnut-bellied Sandgrouse; Common Cuckoo; Common Hoopoe; Common Tailorbird; Common Woodshrike; Eastern Cattle-Egret; Eurasian Collared-Dove; Eurasian Kestrel; Greater Coucal; Gull-billed Tern; Indian Robin; Laughing Dove; Lesser Black-backed Gull; Little Cormorant; Little Swift; Long-tailed Shrike; Oriental Honey-buzzard; Painted Stork; Pied Cuckoo; Purple Sunbird; Red-backed Shrike; Red-naped Ibis; Red-tailed Shrike; Red-wattled Lapwing; Red Collared-Dove; Rufous-fronted Prinia; Spotted Flycatcher; Tawny Pipit; Western Reef-Heron; White-eared Bulbul; White-throated Kingfisher; Wire-tailed Swallow; Zitting Cisticola","n_species":38,"focal_species_seen":"Common Cuckoo; Red-backed Shrike; Red-tailed Shrike; Spotted Flycatcher","focal_species_slugs":"common-cuckoo;red-backed-shrike;red-tailed-shrike;spotted-flycatcher","has_focal":true,"GRID_CODE":"GJ-KU-MAN-052","DISTRICT":"Kachchh","BLOCK":"Mandvi"},"geometry":{"type":"Point","coordinates":[69.4152401,22.8037957]}},{"type":"Feature","properties":{"GROUP.ID":"G10908073","LOCALITY":"PMC2023_T11G2","LATITUDE":22.945503,"LONGITUDE":69.101797,"OBSERVATION.DATE":"2023-09-23","OBSERVER.ID":"obsr1240749","DURATION.MINUTES":58.0,"SAMPLING.EVENT.IDENTIFIER":"S150978322","species_list":"Ashy-crowned Sparrow-Lark; Bay-backed Shrike; Baya Weaver; Black-winged Kite; Common Babbler; Common Hoopoe; Common Sandpiper; Crested Lark; Eastern Cattle-Egret; Eastern Red-rumped Swallow; Eurasian Wryneck; European Roller; Gray-breasted Prinia; Gray Francolin; Greater Coucal; Indian Bushlark; Indian Courser; Indian Pond-Heron; Indian Robin; Jungle Prinia; Little Egret; Little Swift; Long-tailed Shrike; Paddyfield Pipit; Painted Stork; Pied Bushchat; Plain Prinia; Red-backed Shrike; Red-vented Bulbul; Red-wattled Lapwing; Rufous-tailed Scrub-Robin; Siberian Stonechat; Spotted Flycatcher; Streaked Weaver; Sykes's Warbler; Tawny Pipit; Variable Wheatear; White-eared Bulbul; White-throated Kingfisher; Yellow-wattled Lapwing","n_species":40,"focal_species_seen":"European Roller; Red-backed Shrike; Rufous-tailed Scrub-Robin; Spotted Flycatcher","focal_species_slugs":"european-roller;red-backed-shrike;rufous-tailed-scrub-robin;spotted-flycatcher","has_focal":true,"GRID_CODE":"GJ-KU-MAN-027","DISTRICT":"Kachchh","BLOCK":"Mandvi"},"geometry":{"type":"Point","coordinates":[69.101797,22.945503]}},{"type":"Feature","properties":{"GROUP.ID":"G10908071","LOCALITY":"PMC2023_T11G3","LATITUDE":23.003194,"LONGITUDE":69.000734,"OBSERVATION.DATE":"2023-09-23","OBSERVER.ID":"obsr1469238","DURATION.MINUTES":17.0,"SAMPLING.EVENT.IDENTIFIER":"S151073032","species_list":"Asian Green Bee-eater; Bay-backed Shrike; Black-winged Kite; Black Drongo; Common Babbler; Common Hoopoe; Eastern Cattle-Egret; Eurasian Collared-Dove; European Roller; Gray-breasted Prinia; Gray Francolin; Indian Robin; Indian Silverbill; Jungle Prinia; Laughing Dove; Little Egret; Long-tailed Shrike; Plain Prinia; Purple Sunbird; Red-vented Bulbul; Red-wattled Lapwing; Red Collared-Dove; Rosy Starling; Siberian Stonechat; Spotted Flycatcher; White-eared Bulbul; White-throated Kingfisher; Wire-tailed Swallow; Yellow-wattled Lapwing","n_species":29,"focal_species_seen":"European Roller; Spotted Flycatcher","focal_species_slugs":"european-roller;spotted-flycatcher","has_focal":true,"GRID_CODE":"GJ-KU-ABD-093","DISTRICT":"Kachchh","BLOCK":"Abdasa"},"geometry":{"type":"Point","coordinates":[69.000734,23.003194]}},{"type":"Feature","properties":{"GROUP.ID":"G11248113","LOCALITY":"Kachchh, Gujarat, IN (22.865, 69.283)","LATITUDE":22.8650722,"LONGITUDE":69.2829499,"OBSERVATION.DATE":"2023-09-23","OBSERVER.ID":"obsr2176608","DURATION.MINUTES":22.0,"SAMPLING.EVENT.IDENTIFIER":"S153989031","species_list":"Asian Koel; Common Myna; Common Tailorbird; Dusky Crag-Martin; Gray-breasted Prinia; Plain Prinia; Purple Sunbird; Red-vented Bulbul; Rose-ringed Parakeet; Rosy Starling; White-eared Bulbul; White-throated Kingfisher","n_species":12,"focal_species_seen":"","focal_species_slugs":"","has_focal":false,"GRID_CODE":"GJ-KU-MAN-040","DISTRICT":"Kachchh","BLOCK":"Mandvi"},"geometry":{"type":"Point","coordinates":[69.2829499,22.8650722]}},{"type":"Feature","properties":{"GROUP.ID":"G12984460","LOCALITY":"Vighakot Fort","LATITUDE":24.2291202,"LONGITUDE":69.1896629,"OBSERVATION.DATE":"2023-09-23","OBSERVER.ID":"obsr826272","DURATION.MINUTES":259.0,"SAMPLING.EVENT.IDENTIFIER":"S193801889","species_list":"Blue-cheeked Bee-eater; Common Kingfisher; Common Sandpiper; Delicate Prinia; Eurasian Collared-Dove; Greater Hoopoe-Lark; Indian Spot-billed Duck; Plain Prinia","n_species":8,"focal_species_seen":"Blue-cheeked Bee-eater","focal_species_slugs":"blue-cheeked-bee-eater","has_focal":true,"GRID_CODE":"GJ-KU-RAN-078","DISTRICT":"Kachchh","BLOCK":"Rann of Kachchh"},"geometry":{"type":"Point","coordinates":[69.1896629,24.2291202]}}]}
